COSMOS 2433 (720)       
1 32275U 07052A   26183.87038603 -.00000048  00000+0  00000+0 0  9999
2 32275  65.5669 315.4057 0003073 199.3999 160.5914  2.13104490145397
COSMOS 2432 (719)       
1 32276U 07052B   26184.41650903 -.00000046  00000+0  00000+0 0  9992
2 32276  65.5829 315.5152 0007462 326.6955  36.0868  2.13103459145430
COSMOS 2434 (721)       
1 32393U 07065A   26184.46893560  .00000087  00000+0  00000+0 0  9993
2 32393  64.3197 191.3666 0001287 326.1242  22.8128  2.13101308144115
COSMOS 2436 (723)       
1 32395U 07065C   26181.60164814  .00000080  00000+0  00000+0 0  9994
2 32395  64.3275 191.5357 0017289 353.5646  87.9496  2.13100248144015
COSMOS 2456 (730)       
1 36111U 09070A   26183.67073075 -.00000011  00000+0  00000+0 0  9994
2 36111  65.0199  70.4441 0003835 338.5659 276.2480  2.13103720128753
COSMOS 2457 (733)       
1 36112U 09070B   26183.88660545 -.00000011  00000+0  00000+0 0  9992
2 36112  65.0059  70.2800 0003586 124.2837  63.4116  2.13101401128764
COSMOS 2460 (732)       
1 36402U 10007C   26181.05593492 -.00000064  00000+0  00000+0 0  9997
2 36402  65.4124 314.0307 0001950 124.3103  53.7611  2.13101843127002
COSMOS 2476 (744)       
1 37867U 11064A   26182.27782083 -.00000014  00000+0  00000+0 0  9993
2 37867  65.2776  72.3955 0022369 237.1745 297.3682  2.13103985114069
COSMOS 2477 (745)       
1 37868U 11064B   26184.40113999 -.00000008  00000+0  00000+0 0  9998
2 37868  65.2853  72.4036 0019485 238.2011 305.5847  2.13103279114106
COSMOS 2475 (743)       
1 37869U 11064C   26182.57892419 -.00000013  00000+0  00000+0 0  9992
2 37869  65.2912  72.4865 0025163 252.1303 288.7676  2.13101976114072
COSMOS 2485 (747)       
1 39155U 13019A   26179.64150049 -.00000037  00000+0  00000+0 0  9990
2 39155  65.4258  73.2198 0022897 232.6425 127.1980  2.13103400102529
COSMOS 2492 (754)       
1 39620U 14012A   26183.35442912 -.00000049  00000+0  00000+0 0  9990
2 39620  65.2879 313.4204 0010245 321.1510  38.7779  2.13103547 95563
COSMOS 2500 (755)       
1 40001U 14032A   26182.58548362 -.00000053  00000+0  00000+0 0  9992
2 40001  65.2235 313.1924 0007812 187.4639 172.5247  2.13106189 93763
COSMOS 2501 (702K)      
1 40315U 14075A   26181.43994692  .00000079  00000+0  00000+0 0  9998
2 40315  63.6170 189.9132 0022635 212.5837 147.3119  2.13101453 90136
COSMOS 2514 (751)       
1 41330U 16008A   26182.83223629 -.00000051  00000+0  00000+0 0  9995
2 41330  65.0121 312.5042 0011840 199.6375 160.3188  2.13102696 80936
COSMOS 2522 (752)       
1 42939U 17055A   26183.60846124  .00000082  00000+0  00000+0 0  9994
2 42939  64.0799 191.3594 0010918 240.8035 119.1169  2.13102034 68308
COSMOS 2527 (756)       
1 43508U 18053A   26183.10109635 -.00000009  00000+0  00000+0 0  9990
2 43508  65.5856  73.4097 0006722 233.8398 126.1632  2.13102340 62599
COSMOS 2529 (757)       
1 43687U 18086A   26183.19741874  .00000081  00000+0  00000+0 0  9999
2 43687  64.2962 192.0874 0012102 256.3420 103.5558  2.13102148 59607
COSMOS 2534 (758)       
1 44299U 19030A   26180.66029704  .00000085  00000+0  00000+0 0  9993
2 44299  64.3700 192.1964 0013517 275.0224  73.0621  2.13102425 55189
COSMOS 2544 (759)       
1 44850U 19088A   26183.51498774 -.00000008  00000+0  00000+0 0  9999
2 44850  65.5733  73.2191 0012628 256.5667 103.3590  2.13103168 51047
COSMOS 2545 (760)       
1 45358U 20018A   26180.42510890 -.00000068  00000+0  00000+0 0  9995
2 45358  64.3471 311.9885 0008865 229.6303 130.2863  2.13102698 48927
COSMOS 2547 (705K)      
1 46805U 20075A   26181.55327406  .00000081  00000+0  00000+0 0  9994
2 46805  64.6009 192.0293 0009399 239.7356 120.2111  2.13100012 44197
COSMOS 2557 (706K)      
1 52984U 22075A   26180.30969183 -.00000070  00000+0  00000+0 0  9996
2 52984  64.2907 314.0587 0010591 272.5686  87.3025  2.13102382 30974
COSMOS 2559 (707K)      
1 54031U 22130A   26183.88345409 -.00000049  00000+0  00000+0 0  9994
2 54031  64.2611 314.0154 0012871 179.7120 180.2939  2.13101789 29026
COSMOS 2564 (761)       
1 54377U 22161A   26184.19589735  .00000086  00000+0  00000+0 0  9998
2 54377  64.7432 192.1803 0012271 225.1243 134.8058  2.13102059 27977
COSMOS 2569 (703K)      
1 57517U 23114A   26181.39268046 -.00000020  00000+0  00000+0 0  9993
2 57517  65.3095  72.1752 0010196 296.5286  63.4269  2.13103831 22549
COSMOS 2584 (704K)      
1 63130U 25042A   26183.15651315 -.00000011  00000+0  00000+0 0  9994
2 63130  65.0933  72.2932 0006178 224.7421 135.2742  2.13103981 10362
COSMOS 2596 (708K)      
1 65590U 25206B   26184.41633569 -.00000047  00000+0  00000+0 0  9998
2 65590  64.6246 314.4213 0011148 309.3011  53.3649  2.13100966  6267
